[{"OBJECT_NAME":"STARLINK-5805","OBJECT_ID":"2023-083AN","EPOCH":"2026-03-09T22:00:01.999584","MEAN_MOTION":15.07425035,"ECCENTRICITY":0.00022428,"INCLINATION":43.0016,"RA_OF_ASC_NODE":67.5854,"ARG_OF_PERICENTER":253.9847,"MEAN_ANOMALY":119.3845,"EPHEMERIS_TYPE":0,"CLASSIFICATION_TYPE":"U","NORAD_CAT_ID":56912,"ELEMENT_SET_NO":999,"REV_AT_EPOCH":572,"BSTAR":0.004636099,"MEAN_MOTION_DOT":0.00071934,"MEAN_MOTION_DDOT":0},{"OBJECT_NAME":"DISKSAT B","OBJECT_ID":"2025-305B","EPOCH":"2026-03-09T19:33:34.074144","MEAN_MOTION":15.07484556,"ECCENTRICITY":0.00037827,"INCLINATION":45.0018,"RA_OF_ASC_NODE":250.2098,"ARG_OF_PERICENTER":311.4052,"MEAN_ANOMALY":48.6498,"EPHEMERIS_TYPE":0,"CLASSIFICATION_TYPE":"U","NORAD_CAT_ID":67220,"ELEMENT_SET_NO":999,"REV_AT_EPOCH":1231,"BSTAR":0.00082400752,"MEAN_MOTION_DOT":0.00012481,"MEAN_MOTION_DDOT":0}]
